{
  "type": "FeatureCollection",
  "features": [
    { "type": "Feature", "geometry": {"type": "Point", "coordinates": [-68.5, -67.25] },  "properties": { "geonameid": 6620709, "name": "Adelaide Island", "feature_class": "T", "feature_code": "ISL" } },
    { "type": "Feature", "geometry": {"type": "Point", "coordinates": [139, -60] },  "properties": { "geonameid": 6636243, "name": "Ad√©lie, Terre", "feature_class": "L", "feature_code": "LAND" } },
    { "type": "Feature", "geometry": {"type": "Point", "coordinates": [-69.89502, -71.2867] },  "properties": { "geonameid": 6620703, "name": "Alexander Island", "feature_class": "T", "feature_code": "ISL" } },
    { "type": "Feature", "geometry": {"type": "Point", "coordinates": [-111.91667, -72.5] },  "properties": { "geonameid": 4036629, "name": "Amundsen Sea", "feature_class": "H", "feature_code": "SEA" } },
    { "type": "Feature", "geometry": {"type": "Point", "coordinates": [-67.25042, -68.15069] },  "properties": { "geonameid": 6620711, "name": "Bear Island", "feature_class": "T", "feature_code": "ISL" } },
    { "type": "Feature", "geometry": {"type": "Point", "coordinates": [-85, -71] },  "properties": { "geonameid": 4036628, "name": "Bellingshausen Sea", "feature_class": "H", "feature_code": "SEA" } },
    { "type": "Feature", "geometry": {"type": "Point", "coordinates": [-48.11667, -79.33333] },  "properties": { "geonameid": 6620704, "name": "Berkner Island", "feature_class": "T", "feature_code": "ISL" } },
    { "type": "Feature", "geometry": {"type": "Point", "coordinates": [-65, -66] },  "properties": { "geonameid": 6625672, "name": "Biscoe Islands", "feature_class": "T", "feature_code": "ISLS" } },
    { "type": "Feature", "geometry": {"type": "Point", "coordinates": [-121, -73.93333] },  "properties": { "geonameid": 6620706, "name": "Carney Island", "feature_class": "T", "feature_code": "ISL" } },
    { "type": "Feature", "geometry": {"type": "Point", "coordinates": [-27.5, -77] },  "properties": { "geonameid": 6630102, "name": "Coats Land", "feature_class": "L", "feature_code": "LAND" } },
    { "type": "Feature", "geometry": {"type": "Point", "coordinates": [93.5, -66] },  "properties": { "geonameid": 4036627, "name": "Davis Sea", "feature_class": "H", "feature_code": "SEA" } },
    { "type": "Feature", "geometry": {"type": "Point", "coordinates": [-85, -75] },  "properties": { "geonameid": 6632694, "name": "Ellsworth Land", "feature_class": "L", "feature_code": "LAND" } },
    { "type": "Feature", "geometry": {"type": "Point", "coordinates": [53, -67.5] },  "properties": { "geonameid": 6630103, "name": "Enderby Land", "feature_class": "L", "feature_code": "LAND" } },
    { "type": "Feature", "geometry": {"type": "Point", "coordinates": [148.3, -68.9] },  "properties": { "geonameid": 6633774, "name": "George Land", "feature_class": "L", "feature_code": "LAND" } },
    { "type": "Feature", "geometry": {"type": "Point", "coordinates": [-45.533, -60.65] },  "properties": { "geonameid": 6635389, "name": "Iceberg Bay", "feature_class": "H", "feature_code": "BAY" } },
    { "type": "Feature", "geometry": {"type": "Point", "coordinates": [-57.75, -64.2] },  "properties": { "geonameid": 6620713, "name": "James Ross Island", "feature_class": "T", "feature_code": "ISL" } },
    { "type": "Feature", "geometry": {"type": "Point", "coordinates": [57.5, -67.5] },  "properties": { "geonameid": 6635976, "name": "Kemp Land", "feature_class": "L", "feature_code": "LAND" } },
    { "type": "Feature", "geometry": {"type": "Point", "coordinates": [65, -70] },  "properties": { "geonameid": 6637369, "name": "Mac.Robertson Land", "feature_class": "L", "feature_code": "LAND" } },
    { "type": "Feature", "geometry": {"type": "Point", "coordinates": [-130, -78] },  "properties": { "geonameid": 6637528, "name": "Marie Byrd Land", "feature_class": "L", "feature_code": "LAND" } },
    { "type": "Feature", "geometry": {"type": "Point", "coordinates": [105, -65] },  "properties": { "geonameid": 6637723, "name": "Mawson Sea", "feature_class": "H", "feature_code": "SEA" } },
    { "type": "Feature", "geometry": {"type": "Point", "coordinates": [141, -66] },  "properties": { "geonameid": 6632432, "name": "Mer Dumont d'Urville", "feature_class": "H", "feature_code": "SEA" } },
    { "type": "Feature", "geometry": {"type": "Point", "coordinates": [159.5, -72] },  "properties": { "geonameid": 8521281, "name": "Oates Land", "feature_class": "L", "feature_code": "LAND" } },
    { "type": "Feature", "geometry": {"type": "Point", "coordinates": [-90.59326, -68.80401] },  "properties": { "geonameid": 6620309, "name": "Peter I Island", "feature_class": "T", "feature_code": "ISL" } },
    { "type": "Feature", "geometry": {"type": "Point", "coordinates": [80.36667, -68.5] },  "properties": { "geonameid": 6623629, "name": "Princess Elizabeth Land", "feature_class": "L", "feature_code": "LAND" } },
    { "type": "Feature", "geometry": {"type": "Point", "coordinates": [-49, -84] },  "properties": { "geonameid": 8521163, "name": "Queen Elizabeth Land", "feature_class": "L", "feature_code": "LAND" } },
    { "type": "Feature", "geometry": {"type": "Point", "coordinates": [96, -67.2] },  "properties": { "geonameid": 8521120, "name": "Queen Mary Land", "feature_class": "L", "feature_code": "LAND" } },
    { "type": "Feature", "geometry": {"type": "Point", "coordinates": [-162, -79.28333] },  "properties": { "geonameid": 6620707, "name": "Roosevelt Island", "feature_class": "T", "feature_code": "ISL" } },
    { "type": "Feature", "geometry": {"type": "Point", "coordinates": [167.75, -77.5] },  "properties": { "geonameid": 6620714, "name": "Ross Island", "feature_class": "T", "feature_code": "ISL" } },
    { "type": "Feature", "geometry": {"type": "Point", "coordinates": [-175, -75] },  "properties": { "geonameid": 4036625, "name": "Ross Sea", "feature_class": "H", "feature_code": "SEA" } },
    { "type": "Feature", "geometry": {"type": "Point", "coordinates": [97.46078, -65.7225] },  "properties": { "geonameid": 6638715, "name": "Shackleton Ice Shelf", "feature_class": "H", "feature_code": "CAPG" } },
    { "type": "Feature", "geometry": {"type": "Point", "coordinates": [-125.2, -73.73333] },  "properties": { "geonameid": 6620708, "name": "Siple Island", "feature_class": "T", "feature_code": "ISL" } },
    { "type": "Feature", "geometry": {"type": "Point", "coordinates": [-75, -73] },  "properties": { "geonameid": 6620710, "name": "Spaatz Island", "feature_class": "T", "feature_code": "ISL" } },
    { "type": "Feature", "geometry": {"type": "Point", "coordinates": [-99, -72.16667] },  "properties": { "geonameid": 6620705, "name": "Thurston Island", "feature_class": "T", "feature_code": "ISL" } },
    { "type": "Feature", "geometry": {"type": "Point", "coordinates": [163, -74.25] },  "properties": { "geonameid": 6627528, "name": "Victoria Land", "feature_class": "L", "feature_code": "LAND" } },
    { "type": "Feature", "geometry": {"type": "Point", "coordinates": [-45, -73] },  "properties": { "geonameid": 4036624, "name": "Weddell Sea", "feature_class": "H", "feature_code": "SEA" } },
    { "type": "Feature", "geometry": {"type": "Point", "coordinates": [90, -67.3] },  "properties": { "geonameid": 6628103, "name": "Wilhelm II Land", "feature_class": "L", "feature_code": "LAND" } },
    { "type": "Feature", "geometry": {"type": "Point", "coordinates": [120, -69] },  "properties": { "geonameid": 6628107, "name": "Wilkes Land", "feature_class": "L", "feature_code": "LAND" } }
  ]
}